[{"OBJECT_NAME":"SPACEMOBILE-005","OBJECT_ID":"2024-163B","EPOCH":"2026-03-09T07:38:32.614656","MEAN_MOTION":15.21086957,"ECCENTRICITY":0.00107724,"INCLINATION":52.9748,"RA_OF_ASC_NODE":48.6908,"ARG_OF_PERICENTER":181.4195,"MEAN_ANOMALY":178.6771,"EPHEMERIS_TYPE":0,"CLASSIFICATION_TYPE":"U","NORAD_CAT_ID":61046,"ELEMENT_SET_NO":999,"REV_AT_EPOCH":8256,"BSTAR":0.00070863905,"MEAN_MOTION_DOT":0.00015682,"MEAN_MOTION_DDOT":0},{"OBJECT_NAME":"TRANSPORTER-15 OBJECT M","OBJECT_ID":"2025-276M","EPOCH":"2026-03-09T17:11:37.076640","MEAN_MOTION":15.2015215,"ECCENTRICITY":0.00045268,"INCLINATION":97.4249,"RA_OF_ASC_NODE":144.0134,"ARG_OF_PERICENTER":15.0949,"MEAN_ANOMALY":345.0421,"EPHEMERIS_TYPE":0,"CLASSIFICATION_TYPE":"U","NORAD_CAT_ID":66677,"ELEMENT_SET_NO":999,"REV_AT_EPOCH":1532,"BSTAR":0.00078021993,"MEAN_MOTION_DOT":0.0001684,"MEAN_MOTION_DDOT":0}]
