SPACEMOBILE-005         
1 61046U 24163B   26068.31843304  .00015682  00000+0  70864-3 0  9990
2 61046  52.9748  48.6908 0010772 181.4195 178.6771 15.21086957 82567
TRANSPORTER-15 OBJECT M 
1 66677U 25276M   26068.71640134  .00016840  00000+0  78022-3 0  9992
2 66677  97.4249 144.0134 0004527  15.0949 345.0421 15.20152150 15324
